[
    {
        "CCSDS_OMM_VERS": "2.0",
        "COMMENT": "GENERATED VIA SPACE-TRACK.ORG API",
        "CREATION_DATE": "2023-12-09T06:26:18",
        "ORIGINATOR": "18 SPCS",
        "OBJECT_NAME": "VANGUARD 1",
        "OBJECT_ID": "1958-002B",
        "CENTER_NAME": "EARTH",
        "REF_FRAME": "TEME",
        "TIME_SYSTEM": "UTC",
        "MEAN_ELEMENT_THEORY": "SGP4",
        "EPOCH": "2023-12-08T22:03:33.727104",
        "MEAN_MOTION": "10.85129860",
        "ECCENTRICITY": "0.18426790",
        "INCLINATION": "34.2564",
        "RA_OF_ASC_NODE": "276.7604",
        "ARG_OF_PERICENTER": "306.1649",
        "MEAN_ANOMALY": "38.1895",
        "EPHEMERIS_TYPE": "0",
        "CLASSIFICATION_TYPE": "U",
        "NORAD_CAT_ID": "5",
        "ELEMENT_SET_NO": "999",
        "REV_AT_EPOCH": "34323",
        "BSTAR": "0.00031485000000",
        "MEAN_MOTION_DOT": "0.00000256",
        "MEAN_MOTION_DDOT": "0.0000000000000",
        "SEMIMAJOR_AXIS": "8618.150",
        "PERIOD": "132.703",
        "APOAPSIS": "3828.063",
        "PERIAPSIS": "651.966",
        "OBJECT_TYPE": "PAYLOAD",
        "RCS_SIZE": "SMALL",
        "COUNTRY_CODE": "US",
        "LAUNCH_DATE": "1958-03-17",
        "SITE": "AFETR",
        "DECAY_DATE": null,
        "FILE": "4129239",
        "GP_ID": "244267650",
        "TLE_LINE0": "0 VANGUARD 1",
        "TLE_LINE1": "1     5U 58002B   23342.91914036  .00000256  00000-0  31485-3 0  9994",
        "TLE_LINE2": "2     5  34.2564 276.7604 1842679 306.1649  38.1895 10.85129860343238"
    },
    {
        "CCSDS_OMM_VERS": "2.0",
        "COMMENT": "GENERATED VIA SPACE-TRACK.ORG API",
        "CREATION_DATE": "2023-12-10T21:14:24",
        "ORIGINATOR": "18 SPCS",
        "OBJECT_NAME": "VANGUARD 2",
        "OBJECT_ID": "1959-001A",
        "CENTER_NAME": "EARTH",
        "REF_FRAME": "TEME",
        "TIME_SYSTEM": "UTC",
        "MEAN_ELEMENT_THEORY": "SGP4",
        "EPOCH": "2023-12-10T08:36:58.720608",
        "MEAN_MOTION": "11.87427793",
        "ECCENTRICITY": "0.14603320",
        "INCLINATION": "32.8780",
        "RA_OF_ASC_NODE": "319.5178",
        "ARG_OF_PERICENTER": "232.5989",
        "MEAN_ANOMALY": "113.2670",
        "EPHEMERIS_TYPE": "0",
        "CLASSIFICATION_TYPE": "U",
        "NORAD_CAT_ID": "11",
        "ELEMENT_SET_NO": "999",
        "REV_AT_EPOCH": "42593",
        "BSTAR": "0.00026602000000",
        "MEAN_MOTION_DOT": "0.00000541",
        "MEAN_MOTION_DDOT": "0.0000000000000",
        "SEMIMAJOR_AXIS": "8115.782",
        "PERIOD": "121.271",
        "APOAPSIS": "2922.821",
        "PERIAPSIS": "552.473",
        "OBJECT_TYPE": "PAYLOAD",
        "RCS_SIZE": "MEDIUM",
        "COUNTRY_CODE": "US",
        "LAUNCH_DATE": "1959-02-17",
        "SITE": "AFETR",
        "DECAY_DATE": null,
        "FILE": "4131684",
        "GP_ID": "244378360",
        "TLE_LINE0": "0 VANGUARD 2",
        "TLE_LINE1": "1 00011U 59001A   23344.35901297  .00000541  00000-0  26602-3 0  9998",
        "TLE_LINE2": "2 00011  32.8780 319.5178 1460332 232.5989 113.2670 11.87427793425935"
    },
    {
        "CCSDS_OMM_VERS": "2.0",
        "COMMENT": "GENERATED VIA SPACE-TRACK.ORG API",
        "CREATION_DATE": "2023-12-22T22:36:18",
        "ORIGINATOR": "18 SPCS",
        "OBJECT_NAME": "VANGUARD R/B",
        "OBJECT_ID": "1959-001B",
        "CENTER_NAME": "EARTH",
        "REF_FRAME": "TEME",
        "TIME_SYSTEM": "UTC",
        "MEAN_ELEMENT_THEORY": "SGP4",
        "EPOCH": "2023-12-22T13:07:56.620704",
        "MEAN_MOTION": "11.45904609",
        "ECCENTRICITY": "0.16592760",
        "INCLINATION": "32.8986",
        "RA_OF_ASC_NODE": "178.1213",
        "ARG_OF_PERICENTER": "347.1900",
        "MEAN_ANOMALY": "9.1004",
        "EPHEMERIS_TYPE": "0",
        "CLASSIFICATION_TYPE": "U",
        "NORAD_CAT_ID": "12",
        "ELEMENT_SET_NO": "999",
        "REV_AT_EPOCH": "66962",
        "BSTAR": "0.00039928000000",
        "MEAN_MOTION_DOT": "0.00000687",
        "MEAN_MOTION_DDOT": "0.0000000000000",
        "SEMIMAJOR_AXIS": "8310.673",
        "PERIOD": "125.665",
        "APOAPSIS": "3311.508",
        "PERIAPSIS": "553.568",
        "OBJECT_TYPE": "ROCKET BODY",
        "RCS_SIZE": "MEDIUM",
        "COUNTRY_CODE": "US",
        "LAUNCH_DATE": "1959-02-17",
        "SITE": "AFETR",
        "DECAY_DATE": null,
        "FILE": "4142635",
        "GP_ID": "245307831",
        "TLE_LINE0": "0 VANGUARD R/B",
        "TLE_LINE1": "1    12U 59001B   23356.54718311  .00000687  00000-0  39928-3 0  9992",
        "TLE_LINE2": "2    12  32.8986 178.1213 1659276 347.1900   9.1004 11.45904609669626"
    },
    {
        "CCSDS_OMM_VERS": "2.0",
        "COMMENT": "GENERATED VIA SPACE-TRACK.ORG API",
        "CREATION_DATE": "2023-12-22T22:46:18",
        "ORIGINATOR": "18 SPCS",
        "OBJECT_NAME": "VANGUARD R/B",
        "OBJECT_ID": "1958-002A",
        "CENTER_NAME": "EARTH",
        "REF_FRAME": "TEME",
        "TIME_SYSTEM": "UTC",
        "MEAN_ELEMENT_THEORY": "SGP4",
        "EPOCH": "2023-12-22T12:21:11.267136",
        "MEAN_MOTION": "10.49007812",
        "ECCENTRICITY": "0.20215040",
        "INCLINATION": "34.2787",
        "RA_OF_ASC_NODE": "49.5194",
        "ARG_OF_PERICENTER": "248.2882",
        "MEAN_ANOMALY": "89.1215",
        "EPHEMERIS_TYPE": "0",
        "CLASSIFICATION_TYPE": "U",
        "NORAD_CAT_ID": "16",
        "ELEMENT_SET_NO": "999",
        "REV_AT_EPOCH": "59353",
        "BSTAR": "0.00103800000000",
        "MEAN_MOTION_DOT": "0.00000758",
        "MEAN_MOTION_DDOT": "0.0000000000000",
        "SEMIMAJOR_AXIS": "8814.872",
        "PERIOD": "137.273",
        "APOAPSIS": "4218.667",
        "PERIAPSIS": "654.807",
        "OBJECT_TYPE": "ROCKET BODY",
        "RCS_SIZE": "MEDIUM",
        "COUNTRY_CODE": "US",
        "LAUNCH_DATE": "1958-03-17",
        "SITE": "AFETR",
        "DECAY_DATE": null,
        "FILE": "4142699",
        "GP_ID": "245308783",
        "TLE_LINE0": "0 VANGUARD R/B",
        "TLE_LINE1": "1    16U 58002A   23356.51471374  .00000758  00000-0  10380-2 0  9997",
        "TLE_LINE2": "2    16  34.2787  49.5194 2021504 248.2882  89.1215 10.49007812593533"
    },
    {
        "CCSDS_OMM_VERS": "2.0",
        "COMMENT": "GENERATED VIA SPACE-TRACK.ORG API",
        "CREATION_DATE": "2023-12-10T21:14:24",
        "ORIGINATOR": "18 SPCS",
        "OBJECT_NAME": "ECHO 1 DEB (METAL OBJ)",
        "OBJECT_ID": "1960-009C",
        "CENTER_NAME": "EARTH",
        "REF_FRAME": "TEME",
        "TIME_SYSTEM": "UTC",
        "MEAN_ELEMENT_THEORY": "SGP4",
        "EPOCH": "2023-12-10T11:35:35.752416",
        "MEAN_MOTION": "12.18311846",
        "ECCENTRICITY": "0.01077000",
        "INCLINATION": "47.2151",
        "RA_OF_ASC_NODE": "15.1110",
        "ARG_OF_PERICENTER": "340.7156",
        "MEAN_ANOMALY": "18.9574",
        "EPHEMERIS_TYPE": "0",
        "CLASSIFICATION_TYPE": "U",
        "NORAD_CAT_ID": "51",
        "ELEMENT_SET_NO": "999",
        "REV_AT_EPOCH": "81904",
        "BSTAR": "0.00098914000000",
        "MEAN_MOTION_DOT": "0.00000017",
        "MEAN_MOTION_DDOT": "0.0000000000000",
        "SEMIMAJOR_AXIS": "7978.040",
        "PERIOD": "118.196",
        "APOAPSIS": "1685.828",
        "PERIAPSIS": "1513.981",
        "OBJECT_TYPE": "DEBRIS",
        "RCS_SIZE": "MEDIUM",
        "COUNTRY_CODE": "US",
        "LAUNCH_DATE": "1960-08-12",
        "SITE": "AFETR",
        "DECAY_DATE": null,
        "FILE": "4131684",
        "GP_ID": "244378365",
        "TLE_LINE0": "0 ECHO 1 DEB (METAL OBJ)",
        "TLE_LINE1": "1 00051U 60009C   23344.48305269  .00000017  00000-0  98914-3 0  9996",
        "TLE_LINE2": "2 00051  47.2151  15.1110 0107700 340.7156  18.9574 12.18311846819049"
    },
    {
        "CCSDS_OMM_VERS": "2.0",
        "COMMENT": "GENERATED VIA SPACE-TRACK.ORG API",
        "CREATION_DATE": "2023-12-17T21:08:02",
        "ORIGINATOR": "18 SPCS",
        "OBJECT_NAME": "ECHO 1 DEB (METAL OBJ)",
        "OBJECT_ID": "1960-009E",
        "CENTER_NAME": "EARTH",
        "REF_FRAME": "TEME",
        "TIME_SYSTEM": "UTC",
        "MEAN_ELEMENT_THEORY": "SGP4",
        "EPOCH": "2023-12-16T21:53:04.602048",
        "MEAN_MOTION": "12.17318371",
        "ECCENTRICITY": "0.00992600",
        "INCLINATION": "47.2786",
        "RA_OF_ASC_NODE": "279.3313",
        "ARG_OF_PERICENTER": "257.5016",
        "MEAN_ANOMALY": "101.4654",
        "EPHEMERIS_TYPE": "0",
        "CLASSIFICATION_TYPE": "U",
        "NORAD_CAT_ID": "53",
        "ELEMENT_SET_NO": "999",
        "REV_AT_EPOCH": "82417",
        "BSTAR": "-0.00039435000000",
        "MEAN_MOTION_DOT": "-0.00000124",
        "MEAN_MOTION_DDOT": "0.0000000000000",
        "SEMIMAJOR_AXIS": "7982.380",
        "PERIOD": "118.293",
        "APOAPSIS": "1683.478",
        "PERIAPSIS": "1525.012",
        "OBJECT_TYPE": "DEBRIS",
        "RCS_SIZE": "MEDIUM",
        "COUNTRY_CODE": "US",
        "LAUNCH_DATE": "1960-08-12",
        "SITE": "AFETR",
        "DECAY_DATE": null,
        "FILE": "4138654",
        "GP_ID": "244932702",
        "TLE_LINE0": "0 ECHO 1 DEB (METAL OBJ)",
        "TLE_LINE1": "1 00053U 60009E   23350.91185882 -.00000124  00000-0 -39435-3 0  9994",
        "TLE_LINE2": "2 00053  47.2786 279.3313 0099260 257.5016 101.4654 12.17318371824171"
    }
]